{
  "norad_id": 47559,
  "name": "STARLINK-1958",
  "history": [
    {
      "epoch": "2026-03-28T16:23:14.326944",
      "apogee_km": 360.2909959701674,
      "perigee_km": 350.05515266139355,
      "latitude_deg": -11.027146911920662,
      "longitude_deg": 81.44925216003321,
      "semi_major_axis_km": 6733.31007431578,
      "eccentricity": 0.00076009,
      "inclination_deg": 53.0425,
      "raan_deg": 227.6671,
      "arg_perigee_deg": 22.2071,
      "mean_anomaly_deg": 337.9274,
      "mean_motion_rev_day": 15.7130264
    }
  ]
}